STARLINK-36916          
1 68022U 26040H   26068.91668981 -.01167808  46641-3 -16646-2 0  9992
2 68022  97.2776  17.1179 0000907  97.1355 268.6661 16.05627027  2463
STARLINK-36320          
1 68090U 26042X   26068.75002315 -.01283282  54270-3 -19998-2 0  9999
2 68090  53.1607 194.9613 0000787  60.4765  11.2110 16.03451138  2055
