[{"OBJECT_NAME":"STARLINK-36916","OBJECT_ID":"2026-040H","EPOCH":"2026-03-09T22:00:01.999584","MEAN_MOTION":16.05627027,"ECCENTRICITY":9.079e-5,"INCLINATION":97.2776,"RA_OF_ASC_NODE":17.1179,"ARG_OF_PERICENTER":97.1355,"MEAN_ANOMALY":268.6661,"EPHEMERIS_TYPE":0,"CLASSIFICATION_TYPE":"U","NORAD_CAT_ID":68022,"ELEMENT_SET_NO":999,"REV_AT_EPOCH":246,"BSTAR":-0.001664591,"MEAN_MOTION_DOT":-0.01167808,"MEAN_MOTION_DDOT":0.00046640749},{"OBJECT_NAME":"OBJECT X","OBJECT_ID":"2026-042X","EPOCH":"2026-03-09T18:00:02.000160","MEAN_MOTION":16.03451138,"ECCENTRICITY":7.87e-5,"INCLINATION":53.1607,"RA_OF_ASC_NODE":194.9613,"ARG_OF_PERICENTER":60.4765,"MEAN_ANOMALY":11.211,"EPHEMERIS_TYPE":0,"CLASSIFICATION_TYPE":"U","NORAD_CAT_ID":68090,"ELEMENT_SET_NO":999,"REV_AT_EPOCH":205,"BSTAR":-0.0019998094,"MEAN_MOTION_DOT":-0.01283282,"MEAN_MOTION_DDOT":0.00054269689}]
